[{"OBJECT_NAME":"STARLINK-34842","OBJECT_ID":"2025-179A","EPOCH":"2026-03-09T16:42:15.213024","MEAN_MOTION":15.05618791,"ECCENTRICITY":6.063e-5,"INCLINATION":97.6023,"RA_OF_ASC_NODE":113.0364,"ARG_OF_PERICENTER":120.466,"MEAN_ANOMALY":239.6626,"EPHEMERIS_TYPE":0,"CLASSIFICATION_TYPE":"U","NORAD_CAT_ID":65235,"ELEMENT_SET_NO":999,"REV_AT_EPOCH":3188,"BSTAR":-0.00041854675,"MEAN_MOTION_DOT":-6.09e-5,"MEAN_MOTION_DDOT":0},{"OBJECT_NAME":"PEGASUS DEB","OBJECT_ID":"1994-029JY","EPOCH":"2026-03-09T23:11:54.295296","MEAN_MOTION":14.90653362,"ECCENTRICITY":0.0070631,"INCLINATION":82.0876,"RA_OF_ASC_NODE":46.3317,"ARG_OF_PERICENTER":279.2549,"MEAN_ANOMALY":134.3773,"EPHEMERIS_TYPE":0,"CLASSIFICATION_TYPE":"U","NORAD_CAT_ID":24197,"ELEMENT_SET_NO":999,"REV_AT_EPOCH":68196,"BSTAR":0.0004359638,"MEAN_MOTION_DOT":4.503e-5,"MEAN_MOTION_DDOT":0}]
